[{"OBJECT_NAME":"STARLINK-35094","OBJECT_ID":"2025-191S","EPOCH":"2026-03-09T15:53:13.704288","MEAN_MOTION":15.05657783,"ECCENTRICITY":0.00023323,"INCLINATION":97.6026,"RA_OF_ASC_NODE":301.4709,"ARG_OF_PERICENTER":96.4121,"MEAN_ANOMALY":263.7371,"EPHEMERIS_TYPE":0,"CLASSIFICATION_TYPE":"U","NORAD_CAT_ID":65395,"ELEMENT_SET_NO":999,"REV_AT_EPOCH":3027,"BSTAR":0.0001593648,"MEAN_MOTION_DOT":2.24e-5,"MEAN_MOTION_DDOT":0},{"OBJECT_NAME":"COSMOS 2251 DEB","OBJECT_ID":"1993-036APY","EPOCH":"2026-02-27T18:53:11.975424","MEAN_MOTION":14.91799606,"ECCENTRICITY":0.00652266,"INCLINATION":74.0385,"RA_OF_ASC_NODE":248.3743,"ARG_OF_PERICENTER":297.547,"MEAN_ANOMALY":61.9095,"EPHEMERIS_TYPE":0,"CLASSIFICATION_TYPE":"U","NORAD_CAT_ID":35703,"ELEMENT_SET_NO":999,"REV_AT_EPOCH":67764,"BSTAR":0.00062223908,"MEAN_MOTION_DOT":6.504e-5,"MEAN_MOTION_DDOT":0}]
